ORBCOMM FM05            
1 25117U 97084F   26004.49833096  .00002965  00000+0  85007-3 0  9992
2 25117  45.0134 120.9044 0003381 181.1146 178.9699 14.46807994469754
ORBCOMM FM06            
1 25118U 97084G   26004.40993896  .00003011  00000+0  85952-3 0  9991
2 25118  45.0130 120.8234 0002436 192.9478 215.9385 14.46974029470669
ORBCOMM FM07            
1 25119U 97084H   26004.48176310  .00002678  00000+0  76862-3 0  9992
2 25119  45.0122 121.2242 0004068 173.3399 186.7508 14.46988811470669
ORBCOMM FM03            
1 25158U 98007B   26004.48114993  .00001937  00000+0  71485-3 0  9993
2 25158 107.9636 189.2562 0046805 256.9752 102.6160 14.35108121452910
ORBCOMM FM04            
1 25159U 98007C   26004.43099556  .00002020  00000+0  74162-3 0  9995
2 25159 107.9627 192.5117 0042570 254.5176 105.1261 14.35350806453092
ORBCOMM FM17            
1 25413U 98046A   26004.41459170  .00001443  00000+0  54464-3 0  9992
2 25413  44.9956  27.5801 0002255 197.5397 162.5373 14.35595980432085
ORBCOMM FM18            
1 25414U 98046B   26004.21850749  .00002119  00000+0  72237-3 0  9997
2 25414  44.9935 300.4167 0004269 238.2733 121.7700 14.39234438433203
ORBCOMM FM19            
1 25415U 98046C   26004.28593457  .00002132  00000+0  72914-3 0  9992
2 25415  44.9943 302.4021 0003037 241.8047 248.8584 14.39057366433163
